{
  "norad_id": 47293,
  "name": "ONEWEB-0147",
  "history": [
    {
      "epoch": "2026-03-28T19:02:42.721728Z",
      "apogee_km": 1215.2062026480035,
      "perigee_km": 1212.2467424291372,
      "latitude_deg": 5.128913065035718e-05,
      "longitude_deg": -105.2852998061507,
      "height_km": 1216.361061994056,
      "semi_major_axis_km": 7591.86347253857,
      "eccentricity": 0.00019491,
      "inclination_deg": 87.9019,
      "raan_deg": 6.6016,
      "arg_perigee_deg": 80.1577,
      "mean_anomaly_deg": 279.9772,
      "mean_motion_rev_day": 13.12442175
    },
    {
      "epoch": "2026-03-29T04:11:37.110048Z",
      "apogee_km": 1215.152174175687,
      "perigee_km": 1212.282453245104,
      "latitude_deg": 2.804029814706569e-05,
      "longitude_deg": 117.03676822509888,
      "height_km": 1216.3559480884478,
      "semi_major_axis_km": 7591.854313710395,
      "eccentricity": 0.000189,
      "inclination_deg": 87.9018,
      "raan_deg": 6.526,
      "arg_perigee_deg": 80.0062,
      "mean_anomaly_deg": 280.128,
      "mean_motion_rev_day": 13.1244455
    },
    {
      "epoch": "2026-03-30T00:19:12.772128Z",
      "apogee_km": 1215.160899165594,
      "perigee_km": 1212.256259047028,
      "latitude_deg": -4.1973150807535154e-05,
      "longitude_deg": 174.1456051338332,
      "height_km": 1216.347920283899,
      "semi_major_axis_km": 7591.845579106311,
      "eccentricity": 0.0001913,
      "inclination_deg": 87.902,
      "raan_deg": 6.36,
      "arg_perigee_deg": 80.1569,
      "mean_anomaly_deg": 279.9775,
      "mean_motion_rev_day": 13.12446815
    },
    {
      "epoch": "2026-03-30T05:48:33.424128Z",
      "apogee_km": 1215.1660363146448,
      "perigee_km": 1212.25319660484,
      "latitude_deg": -7.166866256978428e-06,
      "longitude_deg": 91.53882857212668,
      "height_km": 1216.3499267349382,
      "semi_major_axis_km": 7591.846616459742,
      "eccentricity": 0.00019184,
      "inclination_deg": 87.902,
      "raan_deg": 6.3147,
      "arg_perigee_deg": 80.2242,
      "mean_anomaly_deg": 279.9103,
      "mean_motion_rev_day": 13.12446546
    },
    {
      "epoch": "2026-03-30T11:17:54.020832Z",
      "apogee_km": 1215.1610610692014,
      "perigee_km": 1212.2535365396461,
      "latitude_deg": 4.3060163804054506e-05,
      "longitude_deg": 8.932283603290994,
      "height_km": 1216.344098257564,
      "semi_major_axis_km": 7591.8442988044235,
      "eccentricity": 0.00019149,
      "inclination_deg": 87.902,
      "raan_deg": 6.2694,
      "arg_perigee_deg": 80.0657,
      "mean_anomaly_deg": 280.0688,
      "mean_motion_rev_day": 13.12447147
    },
    {
      "epoch": "2026-03-30T18:37:01.602336Z",
      "apogee_km": 1215.1668034015256,
      "perigee_km": 1212.2519898959972,
      "latitude_deg": -1.411108633937043e-05,
      "longitude_deg": -101.21027904005638,
      "height_km": 1216.3465964717348,
      "semi_major_axis_km": 7591.846396648762,
      "eccentricity": 0.00019197,
      "inclination_deg": 87.902,
      "raan_deg": 6.209,
      "arg_perigee_deg": 80.1068,
      "mean_anomaly_deg": 280.0277,
      "mean_motion_rev_day": 13.12446603
    },
    {
      "epoch": "2026-03-31T11:05:03.490944Z",
      "apogee_km": 1215.1593492819675,
      "perigee_km": 1212.2562278348241,
      "latitude_deg": 1.9616594938854443e-06,
      "longitude_deg": 10.9696697381847,
      "height_km": 1216.335286590842,
      "semi_major_axis_km": 7591.8447885583955,
      "eccentricity": 0.0001912,
      "inclination_deg": 87.9019,
      "raan_deg": 6.0731,
      "arg_perigee_deg": 79.677,
      "mean_anomaly_deg": 280.4574,
      "mean_motion_rev_day": 13.1244702
    },
    {
      "epoch": "2026-04-01T10:52:12.965376Z",
      "apogee_km": 1215.1574805776563,
      "perigee_km": 1212.258914081316,
      "latitude_deg": -4.000789516747845e-05,
      "longitude_deg": 13.007037845985836,
      "height_km": 1216.3274552945975,
      "semi_major_axis_km": 7591.845197329486,
      "eccentricity": 0.0001909,
      "inclination_deg": 87.902,
      "raan_deg": 5.8768,
      "arg_perigee_deg": 79.3287,
      "mean_anomaly_deg": 280.8056,
      "mean_motion_rev_day": 13.12446914
    },
    {
      "epoch": "2026-04-02T10:39:22.345632Z",
      "apogee_km": 1215.161325609346,
      "perigee_km": 1212.2483358988866,
      "latitude_deg": -5.012251471353891e-05,
      "longitude_deg": 15.04480025969835,
      "height_km": 1216.3238125482912,
      "semi_major_axis_km": 7591.841830754116,
      "eccentricity": 0.00019185,
      "inclination_deg": 87.9019,
      "raan_deg": 5.6805,
      "arg_perigee_deg": 79.3717,
      "mean_anomaly_deg": 280.7627,
      "mean_motion_rev_day": 13.12447787
    },
    {
      "epoch": "2026-04-03T17:45:39.107808Z",
      "apogee_km": 1215.161860709285,
      "perigee_km": 1212.2420394490855,
      "latitude_deg": 1.9718021959487175e-06,
      "longitude_deg": -93.05926274611122,
      "height_km": 1216.3194084590784,
      "semi_major_axis_km": 7591.838950079185,
      "eccentricity": 0.0001923,
      "inclination_deg": 87.9016,
      "raan_deg": 5.4237,
      "arg_perigee_deg": 79.3367,
      "mean_anomaly_deg": 280.7978,
      "mean_motion_rev_day": 13.12448534
    },
    {
      "epoch": "2026-04-04T06:34:07.140000Z",
      "apogee_km": 1215.1633077689503,
      "perigee_km": 1212.2387799177004,
      "latitude_deg": 4.1791881192553395e-05,
      "longitude_deg": 74.19214051577363,
      "height_km": 1216.3270950679039,
      "semi_major_axis_km": 7591.838043843325,
      "eccentricity": 0.00019261,
      "inclination_deg": 87.9016,
      "raan_deg": 5.3179,
      "arg_perigee_deg": 79.697,
      "mean_anomaly_deg": 280.4376,
      "mean_motion_rev_day": 13.12448769
    },
    {
      "epoch": "2026-04-05T11:50:36.780864Z",
      "apogee_km": 1215.1502465245267,
      "perigee_km": 1212.2442442120855,
      "latitude_deg": 3.0053766423823757e-05,
      "longitude_deg": -6.375442518221899,
      "height_km": 1216.307229818534,
      "semi_major_axis_km": 7591.834245368306,
      "eccentricity": 0.00019139,
      "inclination_deg": 87.9018,
      "raan_deg": 5.0761,
      "arg_perigee_deg": 78.9846,
      "mean_anomaly_deg": 281.1498,
      "mean_motion_rev_day": 13.12449754
    },
    {
      "epoch": "2026-04-05T15:30:10.668384Z",
      "apogee_km": 1215.1750728627148,
      "perigee_km": 1212.232475378667,
      "latitude_deg": -1.8782584493323046e-05,
      "longitude_deg": -61.447129331341394,
      "height_km": 1216.3027911809972,
      "semi_major_axis_km": 7591.840774120691,
      "eccentricity": 0.0001938,
      "inclination_deg": 87.902,
      "raan_deg": 5.0459,
      "arg_perigee_deg": 78.6894,
      "mean_anomaly_deg": 281.4452,
      "mean_motion_rev_day": 13.12448061
    },
    {
      "epoch": "2026-04-06T06:08:25.868544Z",
      "apogee_km": 1215.1868616988431,
      "perigee_km": 1212.2435006082087,
      "latitude_deg": -4.864125921328657e-06,
      "longitude_deg": 78.26749285916544,
      "height_km": 1216.3078525073486,
      "semi_major_axis_km": 7591.852181153526,
      "eccentricity": 0.00019385,
      "inclination_deg": 87.9018,
      "raan_deg": 4.925,
      "arg_perigee_deg": 78.4406,
      "mean_anomaly_deg": 281.694,
      "mean_motion_rev_day": 13.12445103
    },
    {
      "epoch": "2026-04-07T05:55:35.226336Z",
      "apogee_km": 1215.2036861817896,
      "perigee_km": 1212.2325377651678,
      "latitude_deg": -1.7970098794201765e-05,
      "longitude_deg": 80.30514546510778,
      "height_km": 1216.3104542719125,
      "semi_major_axis_km": 7591.855111973478,
      "eccentricity": 0.00019568,
      "inclination_deg": 87.9018,
      "raan_deg": 4.7285,
      "arg_perigee_deg": 78.5385,
      "mean_anomaly_deg": 281.5963,
      "mean_motion_rev_day": 13.12444343
    },
    {
      "epoch": "2026-04-07T18:44:03.449472Z",
      "apogee_km": 1215.2074195239684,
      "perigee_km": 1212.249628715771,
      "latitude_deg": -4.319305691132648e-05,
      "longitude_deg": -112.44395270758771,
      "height_km": 1216.3301125137891,
      "semi_major_axis_km": 7591.865524119869,
      "eccentricity": 0.0001948,
      "inclination_deg": 87.9016,
      "raan_deg": 4.623,
      "arg_perigee_deg": 78.8509,
      "mean_anomaly_deg": 281.2838,
      "mean_motion_rev_day": 13.12441643
    },
    {
      "epoch": "2026-04-08T11:12:05.422752Z",
      "apogee_km": 1215.220184205752,
      "perigee_km": 1212.236732917846,
      "latitude_deg": 7.188592627206927e-05,
      "longitude_deg": -0.26445707815638014,
      "height_km": 1216.3260481106709,
      "semi_major_axis_km": 7591.865458561799,
      "eccentricity": 0.00019649,
      "inclination_deg": 87.9017,
      "raan_deg": 4.487,
      "arg_perigee_deg": 78.7933,
      "mean_anomaly_deg": 281.3417,
      "mean_motion_rev_day": 13.1244166
    },
    {
      "epoch": "2026-04-09T18:18:22.555584Z",
      "apogee_km": 1215.2310314495007,
      "perigee_km": 1212.2261710445264,
      "latitude_deg": 4.60324819099826e-05,
      "longitude_deg": -108.37007575196591,
      "height_km": 1216.3134359067237,
      "semi_major_axis_km": 7591.865601247013,
      "eccentricity": 0.0001979,
      "inclination_deg": 87.9021,
      "raan_deg": 4.2302,
      "arg_perigee_deg": 78.3786,
      "mean_anomaly_deg": 281.7565,
      "mean_motion_rev_day": 13.12441623
    },
    {
      "epoch": "2026-04-10T10:46:24.595392Z",
      "apogee_km": 1215.2132043974188,
      "perigee_km": 1212.2447847935318,
      "latitude_deg": 4.073407814865047e-05,
      "longitude_deg": 3.809137854258785,
      "height_km": 1216.309533407548,
      "semi_major_axis_km": 7591.865994595475,
      "eccentricity": 0.0001955,
      "inclination_deg": 87.9016,
      "raan_deg": 4.0942,
      "arg_perigee_deg": 78.0628,
      "mean_anomaly_deg": 282.072,
      "mean_motion_rev_day": 13.12441521
    }
  ]
}